[{"OBJECT_NAME":"STARLINK-5451","OBJECT_ID":"2022-175P","EPOCH":"2026-03-09T07:15:36.559872","MEAN_MOTION":15.08848431,"ECCENTRICITY":8.579e-5,"INCLINATION":53.2183,"RA_OF_ASC_NODE":40.6577,"ARG_OF_PERICENTER":111.6309,"MEAN_ANOMALY":248.4774,"EPHEMERIS_TYPE":0,"CLASSIFICATION_TYPE":"U","NORAD_CAT_ID":54771,"ELEMENT_SET_NO":999,"REV_AT_EPOCH":17993,"BSTAR":5.73759e-6,"MEAN_MOTION_DOT":-1.96e-6,"MEAN_MOTION_DDOT":0},{"OBJECT_NAME":"OBJECT J","OBJECT_ID":"2024-205J","EPOCH":"2026-03-09T23:28:57.561600","MEAN_MOTION":15.10710806,"ECCENTRICITY":0.00148701,"INCLINATION":97.4211,"RA_OF_ASC_NODE":142.3026,"ARG_OF_PERICENTER":147.8528,"MEAN_ANOMALY":212.3612,"EPHEMERIS_TYPE":0,"CLASSIFICATION_TYPE":"U","NORAD_CAT_ID":61902,"ELEMENT_SET_NO":999,"REV_AT_EPOCH":7320,"BSTAR":0.00056466438,"MEAN_MOTION_DOT":9.322e-5,"MEAN_MOTION_DDOT":0}]
